{"type": "FeatureCollection", "features": [ {"type": "Feature", "properties": {"norad_id": 34117, "name": "COSMOS 2251 DEB", "group": "cosmos-2251-debris", "lat": 24.021915074781948, "lon": -36.30350088797802, "alt_km": 717.9731443350711, "timestamp": "2025-12-27T14:26:30.915148+00:00", "meta": {"OBJECT_NAME": "COSMOS 2251 DEB", "OBJECT_ID": "1993-036KN", "EPOCH": "2025-12-27T05:59:27.436704", "MEAN_MOTION": 14.40073562, "ECCENTRICITY": 0.00552142, "INCLINATION": 74.0407, "RA_OF_ASC_NODE": 317.0194, "ARG_OF_PERICENTER": 29.3792, "MEAN_ANOMALY": 331.0447, "EPHEMERIS_TYPE": 0, "CLASSIFICATION_TYPE": "U", "NORAD_CAT_ID": 34117, "ELEMENT_SET_NO": 999, "REV_AT_EPOCH": 88332, "BSTAR": 0.00086088609, "MEAN_MOTION_DOT": 2.739e-05, "MEAN_MOTION_DDOT": 0}, "tle": {"line1": "1 34117U 93036KN  25361.24962311  .00002739  00000+0  86089-3 0  9996", "line2": "2 34117  74.0407 317.0194 0055214  29.3792 331.0447 14.40073562883322"}}, "geometry": {"type": "Point", "coordinates": [-36.30350088797802, 24.021915074781948]}}, {"type": "Feature", "properties": {"norad_id": 34118, "name": "COSMOS 2251 DEB", "group": "cosmos-2251-debris", "lat": 63.60303569398413, "lon": 3.769456803392426, "alt_km": 560.0801766497179, "timestamp": "2025-12-27T14:26:30.915158+00:00", "meta": {"OBJECT_NAME": "COSMOS 2251 DEB", "OBJECT_ID": "1993-036KP", "EPOCH": "2025-12-27T01:46:27.150240", "MEAN_MOTION": 14.94405187, "ECCENTRICITY": 0.00601951, "INCLINATION": 73.9515, "RA_OF_ASC_NODE": 220.2859, "ARG_OF_PERICENTER": 46.7944, "MEAN_ANOMALY": 105.3488, "EPHEMERIS_TYPE": 0, "CLASSIFICATION_TYPE": "U", "NORAD_CAT_ID": 34118, "ELEMENT_SET_NO": 999, "REV_AT_EPOCH": 89390, "BSTAR": 0.0015891428, "MEAN_MOTION_DOT": 0.0001775, "MEAN_MOTION_DDOT": 0}, "tle": {"line1": "1 34118U 93036KP  25361.07392535  .00017750  00000+0  15891-2 0  9994", "line2": "2 34118  73.9515 220.2859 0060195  46.7944 105.3488 14.94405187893903"}}, "geometry": {"type": "Point", "coordinates": [3.769456803392426, 63.60303569398413]}}, {"type": "Feature", "properties": {"norad_id": 34120, "name": "COSMOS 2251 DEB", "group": "cosmos-2251-debris", "lat": 72.83814792400665, "lon": -57.91138055252634, "alt_km": 868.6037861962313, "timestamp": "2025-12-27T14:26:30.915168+00:00", "meta": {"OBJECT_NAME": "COSMOS 2251 DEB", "OBJECT_ID": "1993-036KR", "EPOCH": "2025-12-26T23:04:51.235104", "MEAN_MOTION": 13.9869911, "ECCENTRICITY": 0.0182582, "INCLINATION": 73.99, "RA_OF_ASC_NODE": 191.5859, "ARG_OF_PERICENTER": 16.1274, "MEAN_ANOMALY": 96.4661, "EPHEMERIS_TYPE": 0, "CLASSIFICATION_TYPE": "U", "NORAD_CAT_ID": 34120, "ELEMENT_SET_NO": 999, "REV_AT_EPOCH": 86179, "BSTAR": 0.00033226, "MEAN_MOTION_DOT": 5.27e-06, "MEAN_MOTION_DDOT": 0}, "tle": {"line1": "1 34120U 93036KR  25360.96170411  .00000527  00000+0  33226-3 0  9998", "line2": "2 34120  73.9900 191.5859 0182582  16.1274  96.4661 13.98699110861795"}}, "geometry": {"type": "Point", "coordinates": [-57.91138055252634, 72.83814792400665]}}, {"type": "Feature", "properties": {"norad_id": 34121, "name": "COSMOS 2251 DEB", "group": "cosmos-2251-debris", "lat": -49.033421775736336, "lon": 52.39521795942684, "alt_km": 781.2918365925334, "timestamp": "2025-12-27T14:26:30.915179+00:00", "meta": {"OBJECT_NAME": "COSMOS 2251 DEB", "OBJECT_ID": "1993-036KS", "EPOCH": "2025-12-27T06:24:13.794048", "MEAN_MOTION": 13.91986397, "ECCENTRICITY": 0.02411714, "INCLINATION": 73.993, "RA_OF_ASC_NODE": 72.2747, "ARG_OF_PERICENTER": 274.7037, "MEAN_ANOMALY": 154.3738, "EPHEMERIS_TYPE": 0, "CLASSIFICATION_TYPE": "U", "NORAD_CAT_ID": 34121, "ELEMENT_SET_NO": 999, "REV_AT_EPOCH": 85327, "BSTAR": 0.0014940833, "MEAN_MOTION_DOT": 2.393e-05, "MEAN_MOTION_DDOT": 0}, "tle": {"line1": "1 34121U 93036KS  25361.26682632  .00002393  00000+0  14941-2 0  9991", "line2": "2 34121  73.9930  72.2747 0241171 274.7037 154.3738 13.91986397853271"}}, "geometry": {"type": "Point", "coordinates": [52.39521795942684, -49.033421775736336]}}, {"type": "Feature", "properties": {"norad_id": 34122, "name": "COSMOS 2251 DEB", "group": "cosmos-2251-debris", "lat": 29.83747494794972, "lon": -99.41126181596007, "alt_km": 732.8047490163008, "timestamp": "2025-12-27T14:26:30.915189+00:00", "meta": {"OBJECT_NAME": "COSMOS 2251 DEB", "OBJECT_ID": "1993-036KT", "EPOCH": "2025-12-27T07:27:51.345216", "MEAN_MOTION": 14.6521624, "ECCENTRICITY": 0.00851975, "INCLINATION": 74.0363, "RA_OF_ASC_NODE": 90.5979, "ARG_OF_PERICENTER": 343.4213, "MEAN_ANOMALY": 72.1444, "EPHEMERIS_TYPE": 0, "CLASSIFICATION_TYPE": "U", "NORAD_CAT_ID": 34122, "ELEMENT_SET_NO": 999, "REV_AT_EPOCH": 88898, "BSTAR": 0.001145553, "MEAN_MOTION_DOT": 6.48e-05, "MEAN_MOTION_DDOT": 0}, "tle": {"line1": "1 34122U 93036KT  25361.31101094  .00006480  00000+0  11456-2 0  9995", "line2": "2 34122  74.0363  90.5979 0085197 343.4213  72.1444 14.65216240888980"}}, "geometry": {"type": "Point", "coordinates": [-99.41126181596007, 29.83747494794972]}}, {"type": "Feature", "properties": {"norad_id": 34127, "name": "COSMOS 2251 DEB", "group": "cosmos-2251-debris", "lat": 61.81954677624323, "lon": 48.953619297715996, "alt_km": 848.5914739899754, "timestamp": "2025-12-27T14:26:30.915199+00:00", "meta": {"OBJECT_NAME": "COSMOS 2251 DEB", "OBJECT_ID": "1993-036KY", "EPOCH": "2025-12-27T02:39:31.520736", "MEAN_MOTION": 14.31672772, "ECCENTRICITY": 0.01143823, "INCLINATION": 74.1804, "RA_OF_ASC_NODE": 17.889, "ARG_OF_PERICENTER": 214.9187, "MEAN_ANOMALY": 202.7854, "EPHEMERIS_TYPE": 0, "CLASSIFICATION_TYPE": "U", "NORAD_CAT_ID": 34127, "ELEMENT_SET_NO": 999, "REV_AT_EPOCH": 86977, "BSTAR": 0.0018286289, "MEAN_MOTION_DOT": 5.217e-05, "MEAN_MOTION_DDOT": 0}, "tle": {"line1": "1 34127U 93036KY  25361.11078149  .00005217  00000+0  18286-2 0  9997", "line2": "2 34127  74.1804  17.8890 0114382 214.9187 202.7854 14.31672772869772"}}, "geometry": {"type": "Point", "coordinates": [48.953619297715996, 61.81954677624323]}}, {"type": "Feature", "properties": {"norad_id": 34128, "name": "COSMOS 2251 DEB", "group": "cosmos-2251-debris", "lat": 44.001996221155764, "lon": -77.52828439758022, "alt_km": 541.9046676121152, "timestamp": "2025-12-27T14:26:30.915209+00:00", "meta": {"OBJECT_NAME": "COSMOS 2251 DEB", "OBJECT_ID": "1993-036KZ", "EPOCH": "2025-12-27T05:21:41.488704", "MEAN_MOTION": 15.01716774, "ECCENTRICITY": 0.00261509, "INCLINATION": 73.9975, "RA_OF_ASC_NODE": 267.1533, "ARG_OF_PERICENTER": 16.4899, "MEAN_ANOMALY": 145.1458, "EPHEMERIS_TYPE": 0, "CLASSIFICATION_TYPE": "U", "NORAD_CAT_ID": 34128, "ELEMENT_SET_NO": 999, "REV_AT_EPOCH": 89384, "BSTAR": 0.0015768508, "MEAN_MOTION_DOT": 0.00020686, "MEAN_MOTION_DDOT": 0}, "tle": {"line1": "1 34128U 93036KZ  25361.22339686  .00020686  00000+0  15769-2 0  9996", "line2": "2 34128  73.9975 267.1533 0026150  16.4899 145.1458 15.01716774893847"}}, "geometry": {"type": "Point", "coordinates": [-77.52828439758022, 44.001996221155764]}}, {"type": "Feature", "properties": {"norad_id": 34129, "name": "COSMOS 2251 DEB", "group": "cosmos-2251-debris", "lat": 34.71888192766111, "lon": -38.11980144765106, "alt_km": 615.969956478757, "timestamp": "2025-12-27T14:26:30.915220+00:00", "meta": {"OBJECT_NAME": "COSMOS 2251 DEB", "OBJECT_ID": "1993-036LA", "EPOCH": "2025-12-27T06:08:44.148192", "MEAN_MOTION": 14.76012314, "ECCENTRICITY": 0.00336143, "INCLINATION": 74.0354, "RA_OF_ASC_NODE": 311.1154, "ARG_OF_PERICENTER": 28.451, "MEAN_ANOMALY": 331.849, "EPHEMERIS_TYPE": 0, "CLASSIFICATION_TYPE": "U", "NORAD_CAT_ID": 34129, "ELEMENT_SET_NO": 999, "REV_AT_EPOCH": 61512, "BSTAR": 0.0016562849, "MEAN_MOTION_DOT": 0.000115, "MEAN_MOTION_DDOT": 0}, "tle": {"line1": "1 34129U 93036LA  25361.25606653  .00011500  00000+0  16563-2 0  9999", "line2": "2 34129  74.0354 311.1154 0033614  28.4510 331.8490 14.76012314615129"}}, "geometry": {"type": "Point", "coordinates": [-38.11980144765106, 34.71888192766111]}}, {"type": "Feature", "properties": {"norad_id": 34136, "name": "COSMOS 2251 DEB", "group": "cosmos-2251-debris", "lat": 54.165552986036474, "lon": 36.69855293150531, "alt_km": 607.0914644381837, "timestamp": "2025-12-27T14:26:30.915230+00:00", "meta": {"OBJECT_NAME": "COSMOS 2251 DEB", "OBJECT_ID": "1993-036LH", "EPOCH": "2025-12-27T03:06:44.784864", "MEAN_MOTION": 14.80168453, "ECCENTRICITY": 0.00848673, "INCLINATION": 74.0201, "RA_OF_ASC_NODE": 14.2497, "ARG_OF_PERICENTER": 133.2385, "MEAN_ANOMALY": 290.8688, "EPHEMERIS_TYPE": 0, "CLASSIFICATION_TYPE": "U", "NORAD_CAT_ID": 34136, "ELEMENT_SET_NO": 999, "REV_AT_EPOCH": 90223, "BSTAR": 0.00041614303, "MEAN_MOTION_DOT": 3.326e-05, "MEAN_MOTION_DDOT": 0}, "tle": {"line1": "1 34136U 93036LH  25361.12968501  .00003326  00000+0  41614-3 0  9999", "line2": "2 34136  74.0201  14.2497 0084867 133.2385 290.8688 14.80168453902235"}}, "geometry": {"type": "Point", "coordinates": [36.69855293150531, 54.165552986036474]}}, {"type": "Feature", "properties": {"norad_id": 34139, "name": "COSMOS 2251 DEB", "group": "cosmos-2251-debris", "lat": 71.71747214839135, "lon": -14.356305623491005, "alt_km": 717.2283685473521, "timestamp": "2025-12-27T14:26:30.915240+00:00", "meta": {"OBJECT_NAME": "COSMOS 2251 DEB", "OBJECT_ID": "1993-036LL", "EPOCH": "2025-12-27T07:57:21.154176", "MEAN_MOTION": 14.59248552, "ECCENTRICITY": 0.00423864, "INCLINATION": 74.0298, "RA_OF_ASC_NODE": 226.247, "ARG_OF_PERICENTER": 294.9331, "MEAN_ANOMALY": 184.7899, "EPHEMERIS_TYPE": 0, "CLASSIFICATION_TYPE": "U", "NORAD_CAT_ID": 34139, "ELEMENT_SET_NO": 999, "REV_AT_EPOCH": 88362, "BSTAR": 0.001401999, "MEAN_MOTION_DOT": 6.678e-05, "MEAN_MOTION_DDOT": 0}, "tle": {"line1": "1 34139U 93036LL  25361.33149484  .00006678  00000+0  14020-2 0  9999", "line2": "2 34139  74.0298 226.2470 0042386 294.9331 184.7899 14.59248552883627"}}, "geometry": {"type": "Point", "coordinates": [-14.356305623491005, 71.71747214839135]}}]}